OBJECT_NAME,OBJECT_ID,EPOCH,MEAN_MOTION,ECCENTRICITY,INCLINATION,RA_OF_ASC_NODE,ARG_OF_PERICENTER,MEAN_ANOMALY,EPHEMERIS_TYPE,CLASSIFICATION_TYPE,NORAD_CAT_ID,ELEMENT_SET_NO,REV_AT_EPOCH,BSTAR,MEAN_MOTION_DOT,MEAN_MOTION_DDOT
GLOBAL-17,2021-120A,2025-02-17T05:51:44.004384,15.38887450,.0011689,41.9970,10.4193,156.8195,203.3174,0,U,49949,999,18007,.97435E-3,.38368E-3,0
GLOBAL-16,2021-120B,2025-02-17T05:09:57.411648,15.39176058,.0008776,42.0053,10.1743,137.6546,222.4973,0,U,49950,999,18006,.96848E-3,.38462E-3,0
IXPE,2021-121A,2025-02-17T06:00:02.999808,15.03472131,.0008008,0.2311,7.0938,333.3839,27.9381,0,U,49954,999,17478,.82517E-3,.12454E-3,0
SHIJIAN-6 05A (SJ-6 05A),2021-122A,2025-02-16T23:10:03.399168,14.96532319,.0001323,97.3539,37.7928,90.8947,269.2427,0,U,49961,999,17610,.42843E-3,.4819E-4,0
SHIJIAN-6 05B (SJ-6 05B),2021-122B,2025-02-16T23:02:22.744608,15.08990301,.0000845,97.3390,42.3720,68.7361,291.3958,0,U,49962,999,17649,.2694E-3,.4198E-4,0
EXPRESS AMU-7,2021-123A,2025-02-16T15:31:51.631104,1.00270431,.0000499,0.0145,140.2644,326.8489,57.7308,0,U,50001,999,1166,0,-.238E-5,0
EXPRESS AMU-3,2021-123B,2025-02-16T07:21:47.450016,1.00272274,.0000547,0.0114,92.1762,178.8916,88.8971,0,U,50002,999,216,0,-.318E-5,0
TIANLIAN 2-02,2021-124A,2025-02-17T04:11:38.750784,1.00271194,.0004025,0.0160,262.0202,45.2941,73.9492,0,U,50005,999,1174,0,-.8E-7,0
STARLINK-3317,2021-125A,2025-02-17T13:34:19.808256,15.08841514,.0001319,53.2173,178.0107,93.0318,267.0825,0,U,50156,999,17798,.29117E-4,.176E-5,0
STARLINK-3313,2021-125B,2025-02-16T15:53:20.348448,15.08844857,.0001586,53.2175,192.0662,94.2235,265.8939,0,U,50157,999,17822,-.8711E-4,-.1674E-4,0
STARLINK-3309,2021-125C,2025-02-17T09:08:02.862816,15.08846942,.000104,53.2150,188.8536,89.5204,270.5907,0,U,50158,999,17520,-.62079E-5,-.387E-5,0
STARLINK-3297,2021-125D,2025-02-16T17:08:53.562912,15.08845486,.0001446,53.2160,191.8412,86.9896,273.1262,0,U,50159,999,17818,-.41399E-4,-.947E-5,0
STARLINK-3304,2021-125F,2025-02-17T14:03:25.992864,15.08868932,.000141,53.2156,187.9190,58.6519,301.4611,0,U,50161,999,17783,.82238E-3,.12835E-3,0
STARLINK-3306,2021-125H,2025-02-17T13:39:34.864128,15.08830548,.000176,53.2190,167.9857,101.2555,258.8635,0,U,50163,999,17811,.16669E-3,.2365E-4,0
STARLINK-3298,2021-125K,2025-02-16T17:02:12.666912,15.08837110,.0000699,53.2166,191.8517,82.4014,277.7057,0,U,50165,999,17823,-.13183E-3,-.2385E-4,0
STARLINK-3305,2021-125L,2025-02-16T15:50:42.561312,15.08840548,.0001289,53.2163,182.0047,86.8581,273.2559,0,U,50166,999,17831,.22576E-4,.71E-6,0
STARLINK-3271,2021-125M,2025-02-17T13:33:00.650304,15.08837973,.0001502,53.2171,188.0244,87.0307,273.0857,0,U,50167,999,17783,.10488E-3,.1381E-4,0
STARLINK-3296,2021-125N,2025-02-17T12:46:38.978112,15.08856990,.0001237,53.2161,178.2447,88.3632,271.7502,0,U,50168,999,17536,.14474E-3,.2017E-4,0
STARLINK-3301,2021-125P,2025-02-17T13:27:39.307968,15.08833713,.0001362,53.2170,178.0333,81.0559,279.0587,0,U,50169,999,17537,.26107E-4,.128E-5,0
STARLINK-3245,2021-125Q,2025-02-17T12:24:04.174272,15.08826215,.0001562,53.2174,178.2281,98.6924,261.4245,0,U,50170,999,17796,-.11872E-3,-.2176E-4,0
STARLINK-3286,2021-125R,2025-02-16T16:05:14.335584,15.08839578,.0001384,53.2175,182.0291,103.3585,256.7561,0,U,50171,999,17832,-.17684E-3,-.3101E-4,0
STARLINK-3287,2021-125S,2025-02-17T13:48:51.084864,15.08834849,.000119,53.2160,177.9643,91.4342,268.6787,0,U,50172,999,17798,.95593E-5,-.136E-5,0
STARLINK-3289,2021-125T,2025-02-16T14:47:05.416224,15.08842586,.0001175,53.2163,172.3424,77.8286,282.2838,0,U,50173,999,17537,-.45557E-4,-.1013E-4,0
STARLINK-3292,2021-125U,2025-02-17T13:00:39.139488,15.08840193,.0001408,53.2168,173.7290,82.4614,277.6538,0,U,50174,999,17804,.82694E-4,.1028E-4,0
STARLINK-3291,2021-125V,2025-02-17T12:29:21.761664,15.08837989,.0001402,53.2188,178.2150,103.7488,256.3660,0,U,50175,999,17796,.89157E-4,.1131E-4,0
STARLINK-3293,2021-125W,2025-02-17T13:38:14.959680,15.08833329,.0001246,53.2171,177.9987,87.3796,272.7339,0,U,50176,999,17537,.88742E-4,.1125E-4,0
STARLINK-3282,2021-125X,2025-02-17T13:54:06.177024,15.08864085,.0001395,53.2189,177.9500,90.7686,269.3466,0,U,50177,999,17797,.2269E-3,.3327E-4,0
STARLINK-3284,2021-125Y,2025-02-17T12:36:01.128384,15.08833212,.0001336,53.2193,178.0495,100.6693,259.4449,0,U,50178,999,17797,.94788E-4,.1221E-4,0
STARLINK-3283,2021-125Z,2025-02-17T13:43:27.172128,15.08910756,.0001754,53.2171,177.9814,95.5054,264.6139,0,U,50179,999,17797,.65845E-3,.10227E-3,0
STARLINK-3265,2021-125AA,2025-02-16T15:08:20.193792,15.08840401,.0001396,53.2164,182.2176,89.6767,270.4385,0,U,50180,999,17523,-.16542E-4,-.551E-5,0
STARLINK-3285,2021-125AB,2025-02-17T13:13:09.063840,15.08836857,.0001623,53.2164,178.0868,87.6972,272.4206,0,U,50181,999,17798,.55729E-3,.8592E-4,0
STARLINK-3277,2021-125AC,2025-02-16T15:59:55.478976,15.08838602,.0001526,53.2195,181.8941,94.2658,265.8509,0,U,50182,999,17836,-.36211E-5,-.346E-5,0
STARLINK-3281,2021-125AD,2025-02-17T13:06:27.620928,15.08838953,.0001498,53.2181,178.0984,87.4630,272.6533,0,U,50183,999,17537,.34626E-4,.263E-5,0
STARLINK-3279,2021-125AF,2025-02-17T13:22:22.682208,15.08845235,.0001543,53.2173,178.0871,92.8641,267.2528,0,U,50185,999,17798,.46064E-3,.7052E-4,0
STARLINK-3274,2021-125AG,2025-02-17T02:29:14.271360,15.08841476,.0001407,53.2179,190.0864,90.3443,269.7710,0,U,50186,999,17777,.18131E-4,.1E-7,0
STARLINK-3272,2021-125AH,2025-02-17T12:41:17.348928,15.08835810,.0001622,53.2194,168.1754,100.0037,260.1138,0,U,50187,999,17550,.59287E-4,.656E-5,0
STARLINK-3275,2021-125AJ,2025-02-17T12:22:55.330752,15.41424487,.0004651,53.2122,118.5826,31.8515,328.2771,0,U,50188,999,17620,.47363E-3,.19758E-3,0
STARLINK-3276,2021-125AK,2025-02-17T12:51:55.771488,15.08854730,.0001379,53.2183,178.1532,92.1327,267.9823,0,U,50189,999,17797,.71671E-4,.853E-5,0
STARLINK-3268,2021-125AL,2025-02-17T14:00:46.123488,15.08842017,.0000695,53.2168,167.9292,71.7623,288.3444,0,U,50190,999,17811,.71446E-4,.85E-5,0
STARLINK-3273,2021-125AM,2025-02-17T12:38:38.187168,15.08831729,.0001404,53.2180,188.1832,96.8184,263.2968,0,U,50191,999,17522,.18382E-3,.2638E-4,0
STARLINK-3259,2021-125AN,2025-02-17T01:12:23.282208,15.08844731,.0001662,53.2181,170.3200,79.5030,280.6150,0,U,50192,999,17542,.79591E-4,.979E-5,0
STARLINK-3261,2021-125AP,2025-02-17T12:35:59.355456,15.08843064,.0001385,53.2157,168.1931,77.3363,282.7784,0,U,50193,999,17810,.22208E-3,.3249E-4,0
STARLINK-3269,2021-125AQ,2025-02-17T05:10:14.970720,15.17248661,.0002228,53.2130,164.3582,44.4455,315.6719,0,U,50194,999,17813,.12203E-2,.24348E-3,0
STARLINK-3266,2021-125AR,2025-02-16T15:50:40.287264,15.08840783,.0001653,53.2183,172.0761,91.3111,268.8070,0,U,50195,999,17845,.10103E-3,.132E-4,0
STARLINK-3267,2021-125AT,2025-02-17T01:01:47.470656,15.08839583,.000129,53.2170,170.3581,90.6279,269.4861,0,U,50197,999,17803,.88646E-4,.1123E-4,0
STARLINK-3264,2021-125AU,2025-02-17T13:23:40.758432,15.08837115,.0001368,53.2176,168.0445,84.9197,275.1951,0,U,50198,999,17811,.40944E-4,.364E-5,0
STARLINK-3270,2021-125AV,2025-02-17T12:57:10.499040,15.08837063,.0001839,53.2175,168.1277,85.9295,274.1907,0,U,50199,999,17810,.61704E-5,-.19E-5,0
STARLINK-3235,2021-125AW,2025-02-16T15:13:34.406400,15.08837294,.0001406,53.2172,172.1521,93.5904,266.5249,0,U,50200,999,17798,.10685E-4,-.118E-5,0
STARLINK-3255,2021-125AX,2025-02-17T13:19:46.282656,15.08828004,.0001436,53.2175,168.0668,96.7174,263.3981,0,U,50201,999,17811,.7705E-4,.938E-5,0
STARLINK-3256,2021-125AY,2025-02-17T12:51:53.957088,15.08801475,.0001322,53.2166,168.1440,101.2513,258.8627,0,U,50202,999,17810,.54858E-3,.8444E-4,0
STARLINK-3257,2021-125AZ,2025-02-17T13:40:58.122624,15.08837671,.0001519,53.2176,168.0773,90.3361,269.7805,0,U,50203,999,17551,.55698E-5,-.199E-5,0
STARLINK-3254,2021-125BA,2025-02-16T14:48:27.691488,15.08839742,.0001673,53.2185,172.2778,105.2482,254.8695,0,U,50204,999,17537,-.18045E-4,-.575E-5,0
STARLINK-3260,2021-125BB,2025-02-17T13:13:07.927680,15.08840908,.0001401,53.2172,138.0812,97.3000,262.8151,0,U,50205,999,17854,.85567E-4,.1074E-4,0
STARLINK-3258,2021-125BC,2025-02-17T12:53:14.006688,15.08853986,.000115,53.2164,168.0358,71.1883,288.9234,0,U,50206,999,17651,.18626E-3,.2679E-4,0
STARLINK-3262,2021-125BD,2025-02-16T14:57:40.724928,15.08839803,.0000942,53.2175,172.2409,80.0445,280.0653,0,U,50207,999,17644,-.1398E-4,-.51E-5,0
TURKSAT 5B,2021-126A,2025-02-14T20:04:06.810816,1.00273419,.0005535,0.0707,331.9814,351.4563,164.6564,0,U,50212,999,1141,0,.144E-5,0
INMARSAT 6-F1,2021-128A,2025-02-15T15:13:26.119776,1.00273242,.000037,0.0199,108.4339,275.0625,74.4765,0,U,50319,999,1136,0,-.171E-5,0
SHIYAN 12 01 (SY-12 01),2021-129A,2025-02-16T21:48:38.687040,1.00067758,.0004147,2.4187,86.9469,264.2286,197.7294,0,U,50321,999,1163,0,-.33E-6,0
SHIYAN 12 02 (SY-12 02),2021-129B,2025-02-16T18:30:38.876256,1.00526026,.000205,2.4181,86.9602,25.1399,33.7122,0,U,50322,999,1163,0,-.197E-5,0
ZY-1 02E,2021-131A,2025-02-17T12:58:11.414496,14.35407628,.0001979,98.4856,129.7462,105.9390,254.2013,0,U,50465,999,16489,.13673E-3,.349E-5,0
XW-3 (CAS-9),2021-131B,2025-02-17T12:41:11.808960,14.40542661,.0005219,98.5128,138.4563,110.6381,249.5368,0,U,50466,999,16531,.45381E-3,.1401E-4,0
ONEWEB-0389,2021-132A,2025-02-17T04:39:55.479168,13.17647351,.0001534,87.9047,102.4964,94.6589,265.4718,0,U,50469,999,15550,.19009E-3,.87E-6,0
ONEWEB-0390,2021-132B,2025-02-17T04:42:22.632192,13.17649355,.0002014,87.9048,102.5031,90.8082,269.3280,0,U,50470,999,15550,.25489E-3,.112E-5,0
ONEWEB-0391,2021-132C,2025-02-17T12:02:10.758624,13.17651406,.0001246,87.9056,102.4452,75.3863,284.7407,0,U,50471,999,15554,.377E-3,.159E-5,0
ONEWEB-0392,2021-132D,2025-02-17T03:39:10.366848,13.17649837,.0001447,87.9042,102.4801,93.9366,266.1931,0,U,50472,999,15553,.18913E-4,.2E-6,0
ONEWEB-0393,2021-132E,2025-02-16T21:32:27.781728,13.17648317,.000173,87.9052,102.5322,95.7019,264.4310,0,U,50473,999,15420,.73249E-4,.41E-6,0
ONEWEB-0394,2021-132F,2025-02-17T02:17:12.236064,13.18685468,.0001772,87.9046,71.9193,93.2127,266.9208,0,U,50474,999,15893,.16546E-3,.78E-6,0
